[{"OBJECT_NAME":"STARLINK-31920","OBJECT_ID":"2024-100Y","EPOCH":"2026-03-09T22:00:01.999584","MEAN_MOTION":15.33615653,"ECCENTRICITY":0.00055131,"INCLINATION":42.9978,"RA_OF_ASC_NODE":90.9988,"ARG_OF_PERICENTER":118.6152,"MEAN_ANOMALY":56.7253,"EPHEMERIS_TYPE":0,"CLASSIFICATION_TYPE":"U","NORAD_CAT_ID":59907,"ELEMENT_SET_NO":999,"REV_AT_EPOCH":580,"BSTAR":0.0037091852,"MEAN_MOTION_DOT":0.00124969,"MEAN_MOTION_DDOT":0},{"OBJECT_NAME":"BANDWAGON-2 OBJECT AC","OBJECT_ID":"2024-247AC","EPOCH":"2026-03-09T11:57:27.837504","MEAN_MOTION":15.35059671,"ECCENTRICITY":0.0004253,"INCLINATION":45.0036,"RA_OF_ASC_NODE":108.1066,"ARG_OF_PERICENTER":352.6172,"MEAN_ANOMALY":7.4651,"EPHEMERIS_TYPE":0,"CLASSIFICATION_TYPE":"U","NORAD_CAT_ID":62403,"ELEMENT_SET_NO":999,"REV_AT_EPOCH":6782,"BSTAR":0.00062485362,"MEAN_MOTION_DOT":0.00021432,"MEAN_MOTION_DDOT":0}]
